0332P      j  2016 03 17.7739  1.575357  0.494294  152.7712    3.6729    9.4296            20.5  2.0  332P-J/Ikeya-Murakami                                    MPEC 2016-EI8
0332P      j  2016 03 17.7739  1.575357  0.494294  152.7712    3.6729    9.4296            20.5  2.0  332P-J/Ikeya-Murakami                                    MPEC 2016-EI8
0333P         2024 11 29.1496  1.111236  0.736676   25.9921  115.6346  131.9888  20220126  15.0  4.0  333P/LINEAR                                              MPEC 2020-L06
0333P         2024 11 29.1496  1.111236  0.736676   25.9921  115.6346  131.9888  20220126  15.0  4.0  333P/LINEAR                                              MPEC 2020-L06
0334P         2017 06  5.4233  4.438724  0.350911   90.1100   90.6394   20.4144  20220126  10.5  4.0  334P/NEAT                                                MPC115888
0334P         2017 06  5.4233  4.438724  0.350911   90.1100   90.6394   20.4144  20220126  10.5  4.0  334P/NEAT                                                MPC115888
0335P         2022 08 12.0144  1.623903  0.546046  162.3070  330.8475    7.2934  20220126  17.0  4.0  335P/Gibbs                                               MPEC 2021-U31
0335P         2022 08 12.0144  1.623903  0.546046  162.3070  330.8475    7.2934  20220126  17.0  4.0  335P/Gibbs                                               MPEC 2021-U31
0336P         2017 02  1.3582  2.796194  0.444551  308.7503  298.2453   17.8315  20220126  13.5  4.0  336P/McNaught                                            MPC105244
0336P         2017 02  1.3582  2.796194  0.444551  308.7503  298.2453   17.8315  20220126  13.5  4.0  336P/McNaught                                            MPC105244
0337P         2022 07  1.1432  1.654110  0.496651  161.0218  106.0627   15.3709  20220126  17.0  4.0  337P/WISE                                                MPEC 2021-N06
0337P         2022 07  1.1432  1.654110  0.496651  161.0218  106.0627   15.3709  20220126  17.0  4.0  337P/WISE                                                MPEC 2021-N06
0338P         2024 08  2.8444  2.291415  0.411821    4.4315    9.7959   25.3846  20220126  12.0  4.0  338P/McNaught                                            MPC104796
0338P         2024 08  2.8444  2.291415  0.411821    4.4315    9.7959   25.3846  20220126  12.0  4.0  338P/McNaught                                            MPC104796
0339P         2023 08 31.0589  1.348028  0.635462   27.4934  172.7255    5.7333  20220126  17.0  4.0  339P/Gibbs                                               MPC101101
0339P         2023 08 31.0589  1.348028  0.635462   27.4934  172.7255    5.7333  20220126  17.0  4.0  339P/Gibbs                                               MPC101101
0340P         2025 08 27.8574  3.057090  0.280814   35.9223  291.7011    2.0786  20220126  14.3  4.0  340P/Boattini                                            MPC133426
0341P         2025 04 21.9117  2.508093  0.415673  312.2055   29.9709    3.7966  20220126  12.5  4.0  341P/Gibbs                                               MPEC 2021-BE3
0341P         2025 04 21.9117  2.508093  0.415673  312.2055   29.9709    3.7966  20220126  12.5  4.0  341P/Gibbs                                               MPEC 2021-BE3
0342P         2021 10 19.3005  0.052435  0.982765   73.2688   27.7032   11.6660  20220126   9.0  4.0  342P/SOHO                                                MPC101101
0342P         2021 10 19.3005  0.052435  0.982765   73.2688   27.7032   11.6660  20220126   9.0  4.0  342P/SOHO                                                MPC101101
0343P         2017 01 29.3824  2.267276  0.584680  137.4099  257.1661    5.5868  20220126  14.0  4.0  343P/NEAT-LONEOS                                         MPC109148
0343P         2017 01 29.3824  2.267276  0.584680  137.4099  257.1661    5.5868  20220126  14.0  4.0  343P/NEAT-LONEOS                                         MPC109148
0344P         2016 11  1.7549  2.808768  0.422498  140.3912  273.1502    3.4923  20220126  13.0  4.0  344P/Read                                                MPC109148
0344P         2016 11  1.7549  2.808768  0.422498  140.3912  273.1502    3.4923  20220126  13.0  4.0  344P/Read                                                MPC109148
0345P         2024 08 29.7391  3.143579  0.221323  196.4793  154.5113    2.7274  20220126  12.0  4.0  345P/LINEAR                                              MPC109148
0345P         2024 08 29.7391  3.143579  0.221323  196.4793  154.5113    2.7274  20220126  12.0  4.0  345P/LINEAR                                              MPC109148
0346P         2026 08  2.7225  2.225239  0.502704  335.9579  102.4594   22.1921  20220126  14.0  4.0  346P/Catalina                                            MPC110086
0346P         2026 08  2.7225  2.225239  0.502704  335.9579  102.4594   22.1921  20220126  14.0  4.0  346P/Catalina                                            MPC110086
0347P         2023 07 20.0372  2.213512  0.385988   98.3870  261.0219   11.7521  20220126  15.0  4.0  347P/PANSTARRS                                           MPC108599
0347P         2023 07 20.0372  2.213512  0.385988   98.3870  261.0219   11.7521  20220126  15.0  4.0  347P/PANSTARRS                                           MPC108599
0348P         2022 02 12.5166  2.183867  0.306793  135.6608  312.9414   17.7402  20220126  14.0  4.0  348P/PANSTARRS                                           MPEC 2022-A21
0348P         2022 02 12.5153  2.183867  0.306793  135.6606  312.9416   17.7402  20220126  14.0  4.0  348P/PANSTARRS                                           MPEC 2020-SI8
0349P         2024 05 27.6268  2.507004  0.298636  255.9948  331.7462    5.4908  20220126  14.0  4.0  349P/Lemmon                                              MPC112394
0349P         2024 05 27.6268  2.507004  0.298636  255.9948  331.7462    5.4908  20220126  14.0  4.0  349P/Lemmon                                              MPC112394
0350P         2017 12 13.0549  3.710757  0.092299  139.8300   65.3083    7.3601  20220126  14.0  4.0  350P/McNaught                                            MPC111775
0350P         2017 12 13.0549  3.710757  0.092299  139.8300   65.3083    7.3601  20220126  14.0  4.0  350P/McNaught                                            MPC111775
0351P         2025 03 26.1940  3.126658  0.295526  352.6809  283.4419   12.7839  20220126  12.5  4.0  351P/Wiegert-PANSTARRS                                   MPC105244
0351P         2025 03 26.1940  3.126658  0.295526  352.6809  283.4419   12.7839  20220126  12.5  4.0  351P/Wiegert-PANSTARRS                                   MPC105244
0352P         2017 06 22.8382  2.535754  0.618165  309.2644   28.0318   21.0107  20220126  11.5  4.0  352P/Skiff                                               MPC110086
0352P         2017 06 22.8382  2.535754  0.618165  309.2644   28.0318   21.0107  20220126  11.5  4.0  352P/Skiff                                               MPC110086
0353P         2017 12 22.5629  2.209337  0.470311  230.4158  121.5521   28.4193  20220126  14.5  4.0  353P/McNaught                                            MPEC 2020-AA5
0353P         2017 12 22.5629  2.209337  0.470311  230.4158  121.5521   28.4193  20220126  14.5  4.0  353P/McNaught                                            MPEC 2020-AA5
0354P         2023 10 14.2316  2.001616  0.125689  132.8892  320.1282    5.2556  20220126  15.5  4.0  354P/LINEAR                                              MPC105545
0354P         2023 10 14.2316  2.001616  0.125689  132.8892  320.1282    5.2556  20220126  15.5  4.0  354P/LINEAR                                              MPC105545
0355P         2024 04  1.6290  1.709242  0.507546  336.2719   51.4295   11.0433  20220126  15.5  2.0  355P/LINEAR-NEAT                                         MPEC 2020-AA5
0355P         2024 04  1.6290  1.709242  0.507546  336.2719   51.4295   11.0433  20220126  15.5  2.0  355P/LINEAR-NEAT                                         MPEC 2020-AA5
0356P         2017 12 18.2614  2.680435  0.355433  225.9965  160.7977    9.6380  20220126  14.0  4.0  356P/WISE                                                MPEC 2021-F20
0356P         2017 12 18.2614  2.680435  0.355433  225.9965  160.7977    9.6380  20220126  14.0  4.0  356P/WISE                                                MPEC 2021-F20
0357P         2018 05 29.5700  2.518547  0.435224    1.3885   44.5615    6.3137  20220126  15.5  4.0  357P/Hill                                                MPC114609
0357P         2018 05 29.5700  2.518547  0.435224    1.3885   44.5615    6.3137  20220126  15.5  4.0  357P/Hill                                                MPC114609
0358P         2023 11 11.2617  2.395624  0.238732  299.7573   85.7027   11.0594  20220126  18.0  4.0  358P/PANSTARRS                                           MPEC 2020-HN5
0358P         2023 11 11.2617  2.395624  0.238732  299.7573   85.7027   11.0594  20220126  18.0  4.0  358P/PANSTARRS                                           MPEC 2020-HN5
0359P         2017 08 22.3934  3.135644  0.324195  200.2031  149.7557   10.2674  20220126  13.5  4.0  359P/LONEOS                                              MPC110086
0359P         2017 08 22.3934  3.135644  0.324195  200.2031  149.7557   10.2674  20220126  13.5  4.0  359P/LONEOS                                              MPC110086
0360P         2024 10  3.4848  1.853860  0.499144  354.1529    2.1909   24.1102  20220126  19.5  6.0  360P/WISE                                                MPC108599
0360P         2024 10  3.4848  1.853860  0.499144  354.1529    2.1909   24.1102  20220126  19.5  6.0  360P/WISE                                                MPC108599
0361P         2018 07  2.6087  2.772494  0.438446  219.0202  203.2518   13.8977  20220126  12.0  4.0  361P/Spacewatch                                          MPC114609
